0 SL-12 R/B(AUX MOTOR)
1 28920U 05050F   13282.01970534  .00000086  00000-0  29895-3 0  5475
2 28920 065.1889 282.3393 5678979 043.8716 349.3416 04.23428125120015
0 SL-12 R/B(AUX MOTOR)
1 28920U 05050F   13287.45160015  .00000079  00000-0  23515-3 0  5490
2 28920 065.1835 280.4116 5680220 043.5921 349.4222 04.23428932120242
0 SL-12 R/B(AUX MOTOR)
1 28920U 05050F   13289.57712021  .00000065  00000-0  19234-3 0  5505
2 28920 065.1813 279.6569 5680669 043.4827 349.4513 04.23429406120331
0 SL-12 R/B(AUX MOTOR)
1 28920U 05050F   13292.17496967  .00000067  00000-0  26485-3 0  5512
2 28920 065.1785 278.7344 5681195 043.3489 349.4798 04.23429480120447
0 SL-12 R/B(AUX MOTOR)
1 28920U 05050F   13294.77281836  .00000058  00000-0  24513-3 0  5528
2 28920 065.1760 277.8122 5681784 043.2148 349.5097 04.23429751120555
